{
  "norad_id": 55990,
  "name": "STARLINK-5946",
  "history": [
    {
      "epoch": "2026-03-28T22:00:01.999584Z",
      "apogee_km": 504.2266636556533,
      "perigee_km": 501.86820650237496,
      "latitude_deg": 29.805515615967415,
      "longitude_deg": -168.08066355161873,
      "height_km": 504.3916091027973,
      "semi_major_axis_km": 6881.184435079014,
      "eccentricity": 0.00017137,
      "inclination_deg": 42.9989,
      "raan_deg": 310.6014,
      "arg_perigee_deg": 274.0308,
      "mean_anomaly_deg": 132.537,
      "mean_motion_rev_day": 15.20925581
    },
    {
      "epoch": "2026-03-29T04:00:01.999584Z",
      "apogee_km": 503.6971567217679,
      "perigee_km": 500.8128963842373,
      "latitude_deg": -15.725406573196324,
      "longitude_deg": 45.144996111024874,
      "height_km": 505.0123848109519,
      "semi_major_axis_km": 6880.392026553002,
      "eccentricity": 0.0002096,
      "inclination_deg": 43.0004,
      "raan_deg": 309.2041,
      "arg_perigee_deg": 261.2927,
      "mean_anomaly_deg": 75.4821,
      "mean_motion_rev_day": 15.21188334
    },
    {
      "epoch": "2026-03-30T04:00:01.999584Z",
      "apogee_km": 501.4261175972324,
      "perigee_km": 499.1548608402927,
      "latitude_deg": 36.40408323483807,
      "longitude_deg": 107.88104785907373,
      "height_km": 503.0466614996899,
      "semi_major_axis_km": 6878.427489218762,
      "eccentricity": 0.0001651,
      "inclination_deg": 43.0029,
      "raan_deg": 303.6108,
      "arg_perigee_deg": 265.9002,
      "mean_anomaly_deg": 154.2395,
      "mean_motion_rev_day": 15.21840077
    },
    {
      "epoch": "2026-03-30T06:00:02.000160Z",
      "apogee_km": 499.8137379179034,
      "perigee_km": 498.05375797208944,
      "latitude_deg": 15.454840884857582,
      "longitude_deg": -171.66190322462464,
      "height_km": 498.58464743382604,
      "semi_major_axis_km": 6877.070747944997,
      "eccentricity": 0.00012796,
      "inclination_deg": 42.9998,
      "raan_deg": 303.1395,
      "arg_perigee_deg": 287.6883,
      "mean_anomaly_deg": 229.3779,
      "mean_motion_rev_day": 15.22290453
    }
  ]
}